{"epoch":1784710044,"count":18256,"objects":[{"id":"27844","name":"CUTE-1","type":"PAYLOAD","l1":"1 27844U 03031E   26201.96672872  .00000174  00000-0  94328-4 0  9992","l2":"2 27844  98.6745 210.1018 0010867  87.8923 272.3500 14.24353883196486"},{"id":"27848","name":"CUBESAT XI 4","type":"PAYLOAD","l1":"1 27848U 03031J   26202.46414799  .00000171  00000-0  94004-4 0  9992","l2":"2 27848  98.6777 210.2780 0010700 103.0346 257.2027 14.23636890196250"},{"id":"28895","name":"CUBESAT XI 5","type":"PAYLOAD","l1":"1 28895U 05043F   26202.37477685  .00000932  00000-0  15414-3 0  9995","l2":"2 28895  98.3024 358.7230 0015344  97.2573 263.0378 14.72712744106788"},{"id":"32785","name":"CUTE-1.7+APD 2","type":"PAYLOAD","l1":"1 32785U 08021C   26202.58379246  .00004029  00000-0  25384-3 0  9992","l2":"2 32785  97.8297 184.7297 0006893 272.1964  87.8475 15.09735529990388"},{"id":"32790","name":"CANX-2","type":"PAYLOAD","l1":"1 32790U 08021H   26202.37920509  .00002213  00000-0  15697-3 0  9998","l2":"2 32790  97.8661 182.8312 0008614 293.0551  66.9766 15.05828715989951"},{"id":"32791","name":"SEEDS","type":"PAYLOAD","l1":"1 32791U 08021J   26202.46224214  .00017397  00000-0  53391-3 0  9991","l2":"2 32791  97.7536 202.0274 0003743 143.8472 216.3023 15.33809298992548"},{"id":"35932","name":"SWISSCUBE","type":"PAYLOAD","l1":"1 35932U 09051B   26202.23982576  .00000659  00000-0  13969-3 0  9992","l2":"2 35932  98.4000 110.7173 0008064 103.0186 257.1915 14.62538248894130"},{"id":"35933","name":"BEESAT","type":"PAYLOAD","l1":"1 35933U 09051C   26202.60934327  .00000569  00000-0  12385-3 0  9996","l2":"2 35933  98.3928 110.6562 0006429 113.2480 246.9398 14.61768730894213"},{"id":"35935","name":"ITUPSAT 1","type":"PAYLOAD","l1":"1 35935U 09051E   26202.49340372  .00000521  00000-0  11752-3 0  9991","l2":"2 35935  98.4012 109.6936 0008429 125.7082 234.4903 14.60484966893747"},{"id":"36799","name":"TISAT 1","type":"PAYLOAD","l1":"1 36799U 10035E   26202.59601294  .00020197  00000-0  63722-3 0  9993","l2":"2 36799  98.0708 152.2342 0004824 107.8741 252.3026 15.32897907872977"},{"id":"39090","name":"STRAND 1","type":"PAYLOAD","l1":"1 39090U 13009E   26202.44894759  .00000189  00000-0  78007-4 0  9990","l2":"2 39090  98.3940  21.8430 0009681 124.3743 235.8361 14.37181358701986"},{"id":"39091","name":"BRITE-A TUGSAT-1","type":"PAYLOAD","l1":"1 39091U 13009F   26202.47670541  .00000112  00000-0  52572-4 0  9990","l2":"2 39091  98.4014  21.0669 0011080 133.3553 226.8559 14.36554203701971"},{"id":"39151","name":"NEE 01 PEGASUS","type":"PAYLOAD","l1":"1 39151U 13018B   26202.49597545  .00001936  00000-0  18806-3 0  9997","l2":"2 39151  98.1266 347.7913 0013511  55.4403 304.8089 14.93810593715827"},{"id":"39269","name":"POPACS 2","type":"PAYLOAD","l1":"1 39269U 13055E   26202.18625094  .00017810 -90713-6  29070-3 0  9995","l2":"2 39269  80.9903 105.2569 0414414  84.6661 280.1681 14.92193040668286"},{"id":"39270","name":"POPACS 3","type":"PAYLOAD","l1":"1 39270U 13055F   26202.39910167  .00008563  00000-0  20415-3 0  9990","l2":"2 39270  81.0011 192.0695 0547958 325.7431  30.9510 14.56760132643533"},{"id":"39417","name":"ZACUBE","type":"PAYLOAD","l1":"1 39417U 13066B   26201.86646474  .00001847  00000-0  14537-3 0  9999","l2":"2 39417  97.7999 164.3670 0044079 137.0238 223.4444 15.01347026685787"},{"id":"39423","name":"WNISAT 1","type":"PAYLOAD","l1":"1 39423U 13066H   26202.38628066  .00000790  00000-0  15103-3 0  9997","l2":"2 39423  97.7244 349.1224 0164161 123.9436 237.7493 14.58129116671713"},{"id":"39427","name":"TRITON 1","type":"PAYLOAD","l1":"1 39427U 13066M   26202.66796096  .00001331  00000-0  16355-3 0  9993","l2":"2 39427  97.8212 111.6857 0091077 121.2505 239.7670 14.81810808679190"},{"id":"39430","name":"GOMX 1","type":"PAYLOAD","l1":"1 39430U 13066Q   26202.50346068  .00000481  00000-0  79449-4 0  9999","l2":"2 39430  97.6468  40.8007 0127696 327.8862  31.4611 14.69549979674957"},{"id":"39440","name":"CUBEBUG 2","type":"PAYLOAD","l1":"1 39440U 13066AA  26202.35702689  .00002264  00000-0  21189-3 0  9996","l2":"2 39440  97.8921 151.4890 0055509 274.4580  85.0299 14.93994868682099"},{"id":"39441","name":"NEE 02 KRYSAOR","type":"PAYLOAD","l1":"1 39441U 13066AB  26202.26510257  .00001446  00000-0  16290-3 0  9993","l2":"2 39441  97.8896 141.2413 0064889 319.1529  40.4833 14.86755362681263"},{"id":"39444","name":"FUNCUBE 1","type":"PAYLOAD","l1":"1 39444U 13066AE  26202.38982302  .00006028  00000-0  37014-3 0  9991","l2":"2 39444  97.8302 174.5633 0038113  87.5834 272.9757 15.09875397684826"},{"id":"39446","name":"UWE-3","type":"PAYLOAD","l1":"1 39446U 13066AG  26202.36857643  .00002812  00000-0  24278-3 0  9995","l2":"2 39446  97.8727 158.6819 0047744 203.3871 156.5179 14.97229762682690"},{"id":"40020","name":"BRITE TORONTO","type":"PAYLOAD","l1":"1 40020U 14033L   26202.34936650  .00000807  00000-0  12832-3 0  9999","l2":"2 40020  97.9778 330.6555 0078933 166.5957 193.7373 14.72731418647245"},{"id":"40021","name":"DUCHIFAT 1","type":"PAYLOAD","l1":"1 40021U 14033M   26202.60079903  .00162508  00000-0  12058-2 0  9994","l2":"2 40021  98.0415 266.8095 0003596 228.2651 131.8303 15.72373633661148"},{"id":"40024","name":"NANOSAT C BR1","type":"PAYLOAD","l1":"1 40024U 14033Q   26202.56148717  .00016499  00000-0  52838-3 0  9990","l2":"2 40024  98.0712 238.0210 0005054  81.5416 278.6397 15.32465614659249"},{"id":"40025","name":"QB50P1","type":"PAYLOAD","l1":"1 40025U 14033R   26202.48152989  .00006934  00000-0  33715-3 0  9994","l2":"2 40025  98.0974 216.0449 0010548 106.4326 253.8066 15.18729218658234"},{"id":"40032","name":"QB50P2","type":"PAYLOAD","l1":"1 40032U 14033Y   26201.97438004  .00004626  00000-0  24766-3 0  9992","l2":"2 40032  98.0771 200.9707 0009145  67.6874 292.5326 15.15553719657789"},{"id":"40037","name":"PERSEUS M2","type":"PAYLOAD","l1":"1 40037U 14033AD  26202.58656199  .00000029  00000-0  81212-5 0  9996","l2":"2 40037  97.9978 153.8332 0011439 178.9554 181.1692 14.95592488655927"},{"id":"40039","name":"PERSEUS M1","type":"PAYLOAD","l1":"1 40039U 14033AF  26202.35602541  .00000655  00000-0  64179-4 0  9992","l2":"2 40039  97.9653 147.0534 0011378 176.3396 183.7909 14.95727732655747"}]}